LEDSAT                  
1 49069U 21073D   24215.16263707  .00022883  00000+0  86883-3 0  9995
2 49069  97.4355 286.0356 0019719 121.6208 238.6958 15.26651723163469
ROBUSTA-1F (MTCUBE 2)   
1 53109U 22080E   24214.85156188 -.00000003  00000+0  00000+0 0  9997
2 53109  70.1222 176.2446 0007775  77.9458 282.2073  6.42584347 48098
SITRO-AIS 5 (KATYS)     
1 57176U 23091L   24215.51139850  .00010018  00000+0  62880-3 0  9993
2 57176  97.6095 267.3159 0016146 326.7646  33.2568 15.09386974 60486
SITRO-AIS 6 (CHIRKIN)   
1 57192U 23091AC  24215.49475744  .00010519  00000+0  65894-3 0  9997
2 57192  97.6098 267.3269 0015991 326.6194  33.4026 15.09446494 60488
SITRO-AIS 8 (ANOKHIN)   
1 57193U 23091AD  24215.51826369  .00010047  00000+0  62313-3 0  9993
2 57193  97.6093 267.4406 0015598 327.7320  32.2953 15.09829319 60492
SITRO-AIS 7 (FARTUSHNIY)
1 57194U 23091AE  24215.50120407  .00010068  00000+0  63187-3 0  9996
2 57194  97.6094 267.3111 0015873 327.1709  32.8532 15.09390763 60481
SITRO-AIS 10 (BURDAEV)  
1 57199U 23091AK  24215.56454972  .00012117  00000+0  71361-3 0  9994
2 57199  97.6111 268.5281 0010695 314.9056  45.1305 15.11715650 60566
SITRO-AIS 9 (SHCHUKIN)  
1 57201U 23091AM  24215.49723102  .00012233  00000+0  72086-3 0  9998
2 57201  97.6107 268.4376 0010641 315.0718  44.9650 15.11691811 60558
SITRO-AIS 12 (SMIRENNIY)
1 57204U 23091AQ  24215.52002275  .00011237  00000+0  65901-3 0  9997
2 57204  97.6113 268.6101 0010448 308.4302  51.5989 15.11886927 60560
SITRO-AIS 11 (SHEFFER)  
1 57208U 23091AU  24215.50307220  .00013040  00000+0  76199-3 0  9992
2 57208  97.6112 268.6206 0010390 308.7161  51.3140 15.11980001 60566
ROBUSTA-1E (ENSO)       
1 58470U 23185J   24215.48771544  .00021111  00000+0  84458-3 0  9994
2 58470  97.4242 281.7682 0013475 116.7177 243.5441 15.25023088 37195
SITRO-AIS 29            
1 59052U 24039B   24215.49580478  .00029458  00000+0  10012-2 0  9991
2 59052  97.3933 177.1994 0019120  60.3807 299.9335 15.30241368 23673
SITRO-AIS 30            
1 59053U 24039C   24215.56270484  .00027319  00000+0  93135-3 0  9995
2 59053  97.3930 177.2577 0019268  60.7724 299.5440 15.30155132 23670
SITRO-AIS 31            
1 59054U 24039D   24215.55180619  .00028809  00000+0  97716-3 0  9999
2 59054  97.3931 177.2732 0019151  60.7656 299.5496 15.30312097 23698
SITRO-AIS 33            
1 59055U 24039E   24215.53964762  .00028142  00000+0  95054-3 0  9990
2 59055  97.3934 177.2957 0018887  61.4702 298.8437 15.30457051 23682
SITRO-AIS 35            
1 59056U 24039F   24215.53538948  .00028027  00000+0  94551-3 0  9997
2 59056  97.3931 177.2981 0018639  61.9097 298.4025 15.30502362 23689
SITRO-AIS 32            
1 59057U 24039G   24215.54559829  .00027837  00000+0  94386-3 0  9994
2 59057  97.3934 177.2866 0018774  62.0009 298.3129 15.30336511 23685
SITRO-AIS 34            
1 59058U 24039H   24215.54034117  .00026461  00000+0  89529-3 0  9998
2 59058  97.3935 177.2964 0018920  61.6503 298.6643 15.30413479 23686
SITRO-AIS 36            
1 59059U 24039J   24215.52917796  .00028688  00000+0  96659-3 0  9995
2 59059  97.3931 177.3067 0018488  61.9642 298.3466 15.30541099 23684
SITRO-AIS 49            
1 59060U 24039K   24215.53051305  .00027332  00000+0  92327-3 0  9996
2 59060  97.3933 177.3053 0018493  61.5706 298.7395 15.30466988 23684
SITRO-AIS 50            
1 59061U 24039L   24215.51713406  .00030376  00000+0  10189-2 0  9999
2 59061  97.3931 177.3212 0018363  61.8123 298.4970 15.30676024 23682
SITRO-AIS 51            
1 59062U 24039M   24215.51704670  .00029325  00000+0  98428-3 0  9998
2 59062  97.3931 177.3220 0018386  61.5533 298.7557 15.30662005 23687
SITRO-AIS 52            
1 59063U 24039N   24215.50814857  .00030110  00000+0  10066-2 0  9992
2 59063  97.3933 177.3355 0018299  61.7258 298.5827 15.30787324 23688
SITRO-AIS 25            
1 59066U 24039R   24215.56018160  .00005019  00000+0  47647-3 0  9990
2 59066  95.4009 128.7838 0170163 182.6897 177.3427 14.83382486 22980
SITRO-AIS 26            
1 59067U 24039S   24215.56071634  .00004878  00000+0  46368-3 0  9997
2 59067  95.4009 128.7825 0170092 182.7260 177.3051 14.83346773 22985
SITRO-AIS 27            
1 59068U 24039T   24215.54620705  .00004690  00000+0  44437-3 0  9992
2 59068  95.4012 128.7999 0169686 182.5658 177.4711 14.83525112 22988
SITRO-AIS 28            
1 59071U 24039U   24215.47489825  .00004727  00000+0  44755-3 0  9998
2 59071  95.4012 128.7591 0169532 182.7782 177.2515 14.83567591 22976
GRBBETA                 
1 60237U 24128C   24215.50923707  .00005409  00000+0  48296-3 0  9991
2 60237  61.9947  79.8076 0011004 299.4901  60.5089 14.97052978  3534
OOV-CUBE                
1 60240U 24128F   24215.18394276  .00003792  00000+0  34895-3 0  9995
2 60240  61.9983  81.0153 0010408 282.9287  77.0638 14.96456739  3490
ROBUSTA-3A (MEDITERRAN*)
1 60243U 24128J   24215.19306829  .00007681  00000+0  69721-3 0  9993
2 60243  61.9925  81.0341 0012749 270.8025  89.1602 14.95967396  3494
BEIJING 1               
1 28890U 05043A   24215.54907579  .00000803  00000+0  16800-3 0  9997
2 28890  98.2052 338.0834 0013636 260.4351  99.5309 14.62423810   673
HUANJING 1A (HJ-1A)     
1 33320U 08041A   24215.54090892  .00002869  00000+0  38281-3 0  9994
2 33320  97.6316 220.2724 0019256 215.7710 144.2214 14.80202700857215
HUANJING 1B (HJ-1B)     
1 33321U 08041B   24215.53638784  .00001934  00000+0  25684-3 0  9997
2 33321  97.6269 224.7961 0036597 264.2690  95.4350 14.80443153857237
YAOGAN-4                
1 33446U 08061A   24215.54121327  .00002304  00000+0  31062-3 0  9997
2 33446  97.8788 146.5479 0016306 131.0138 229.2487 14.80017065844415
DEIMOS-1                
1 35681U 09041A   24215.51161920  .00001273  00000+0  20339-3 0  9998
2 35681  97.6819  34.9565 0000794 161.9408 198.1829 14.73441539806133
UK-DMC 2                
1 35683U 09041C   24215.51867869  .00001861  00000+0  29384-3 0  9997
2 35683  97.7870   1.2746 0001169  85.3820 274.7522 14.73488308805837
DMC3-FM1                
1 40715U 15032A   24215.56191943  .00001424  00000+0  17801-3 0  9990
2 40715  97.7436  93.1071 0006792 130.9992 229.1811 14.83813953488451
DMC3-FM2                
1 40716U 15032B   24215.58457013  .00001474  00000+0  18399-3 0  9994
2 40716  97.7489  94.2296 0008573 137.2732 222.9151 14.83821333488451
DMC3-FM3                
1 40717U 15032C   24215.54453751  .00001414  00000+0  17710-3 0  9996
2 40717  97.7538  95.4884 0010084 136.0605 224.1413 14.83728660488453
NOAA 15                 
1 25338U 98030A   24215.52607513  .00000453  00000+0  20528-3 0  9995
2 25338  98.5671 241.6822 0010268 182.6557 177.4571 14.26645328364045
DMSP 5D-3 F16 (USA 172) 
1 28054U 03048A   24215.57642100  .00000278  00000+0  16996-3 0  9993
2 28054  99.0216 222.4812 0006208 284.6777 184.7627 14.14061188 72835
NOAA 18                 
1 28654U 05018A   24215.51015287  .00000367  00000+0  21963-3 0  9991
2 28654  98.8732 292.0890 0013144 293.3335  66.6454 14.13268385989801
METEOSAT-9 (MSG-2)      
1 28912U 05049B   24214.67423184  .00000112  00000+0  00000+0 0  9990
2 28912   7.7886  60.4812 0000481 348.2345 190.4117  1.00273546   149
EWS-G1 (GOES 13)        
1 29155U 06018A   24212.59888322  .00000048  00000+0  00000+0 0  9993
2 29155   2.7367  84.7930 0075850 255.8120 228.1112  0.99029958 36465
DMSP 5D-3 F17 (USA 191) 
1 29522U 06050A   24215.51852915  .00000297  00000+0  17740-3 0  9990
2 29522  98.7444 225.1392 0009563 201.4647 158.6126 14.14512653915746
FENGYUN 3A              
1 32958U 08026A   24215.42578636  .00000240  00000+0  13508-3 0  9993
2 32958  98.6057 161.2142 0007746 304.5004  55.5440 14.19134108838511
NOAA 19                 
1 33591U 09005A   24215.46819912  .00000360  00000+0  21714-3 0  9995
2 33591  99.0445 271.7510 0014306 158.1736 202.0048 14.13062635798160
GOES 14                 
1 35491U 09033A   24214.94354884 -.00000077  00000+0  00000+0 0  9998
2 35491   0.4433  99.8265 0003468  26.4960  55.9068  1.00272278 55254
DMSP 5D-3 F18 (USA 210) 
1 35951U 09057A   24215.53622154  .00000534  00000+0  30278-3 0  9990
2 35951  98.8169 190.2707 0012018  39.9003 320.3051 14.14187064762913
EWS-G2 (GOES 15)        
1 36411U 10008A   24213.60404937  .00000030  00000+0  00000+0 0  9990
2 36411   0.4975 274.5393 0005275 286.0049  27.9454  1.00277804 52763
COMS 1                  
1 36744U 10032A   24215.47741248 -.00000358  00000+0  00000+0 0  9996
2 36744   3.0614  83.8529 0000728  75.6532  92.0178  1.00269764 51794
FENGYUN 3B              
1 37214U 10059A   24215.55017918  .00000218  00000+0  13753-3 0  9994
2 37214  99.0534 244.2857 0021492 323.9808 153.1702 14.14529919710802
SUOMI NPP               
1 37849U 11061A   24215.49225091  .00000204  00000+0  11770-3 0  9990
2 37849  98.7223 152.7783 0001875 103.7493 256.3892 14.19538408661433
FENGYUN 2F              
1 38049U 12002A   24213.54250280 -.00000368  00000+0  00000+0 0  9993
2 38049   5.7014  72.6875 0002215 131.5126  52.4734  1.00260092 46002
METEOSAT-10 (MSG-3)     
1 38552U 12035B   24215.30891194 -.00000017  00000+0  00000+0 0  9990
2 38552   3.0672  61.2889 0000485 207.2145 154.1907  1.00275354 44366
METOP-B                 
1 38771U 12049A   24215.48991102  .00000300  00000+0  15668-3 0  9991
2 38771  98.6252 271.6660 0000985  84.0624 276.0666 14.21460402616127
INSAT-3D                
1 39216U 13038B   24215.54766571 -.00000350  00000+0  00000+0 0  9998
2 39216   0.1513  94.8525 0001485 107.1751  69.1018  1.00557147 40443
FENGYUN 3C              
1 39260U 13052A   24215.51341216  .00000223  00000+0  13329-3 0  9995
2 39260  98.4304 212.6679 0010817 186.9888 173.1138 14.16240107561886
